CELESTIS-02             
1 25160U 98007D   22322.70028663 -.00000013  00000+0  51795-4 0  9996
2 25160 107.9827 217.3763 0063257 207.8449 169.7907 14.21664244284788
CELESTIS-03             
1 26034U 99070C   22323.52992385  .00020068  00000+0  80492-3 0  9996
2 26034  98.3055 345.5070 0007716 331.8731  28.2086 15.25021966244652
